[{"OBJECT_NAME":"STARLINK-6099","OBJECT_ID":"2023-090H","EPOCH":"2026-03-08T23:30:48.382560","MEAN_MOTION":15.02526592,"ECCENTRICITY":9.167e-5,"INCLINATION":43.0031,"RA_OF_ASC_NODE":278.7605,"ARG_OF_PERICENTER":257.9741,"MEAN_ANOMALY":102.0999,"EPHEMERIS_TYPE":0,"CLASSIFICATION_TYPE":"U","NORAD_CAT_ID":57108,"ELEMENT_SET_NO":999,"REV_AT_EPOCH":15030,"BSTAR":-3.03032e-5,"MEAN_MOTION_DOT":-6.13e-6,"MEAN_MOTION_DDOT":0},{"OBJECT_NAME":"UNKNOWN","OBJECT_ID":"","EPOCH":"2026-03-08T16:53:53.910816","MEAN_MOTION":15.05228096,"ECCENTRICITY":0.0007208,"INCLINATION":85.8751,"RA_OF_ASC_NODE":153.385,"ARG_OF_PERICENTER":323.4201,"MEAN_ANOMALY":36.654,"EPHEMERIS_TYPE":0,"CLASSIFICATION_TYPE":"U","NORAD_CAT_ID":81343,"ELEMENT_SET_NO":999,"REV_AT_EPOCH":46724,"BSTAR":0.00071714,"MEAN_MOTION_DOT":0.00010274,"MEAN_MOTION_DDOT":0}]
